STARLINK-31671          
1 59516U 24073F   26068.10587874 -.00000535  00000+0 -98890-5 0  9997
2 59516  42.9998 321.5442 0003014 242.6241 117.4304 15.27573781106080
FLOCK 4G-7              
1 62624U 25009R   26068.79996108  .00011422  00000+0  43168-3 0  9991
2 62624  97.3984 150.8270 0001396 336.9783  23.1393 15.27141471 63725
